     2              NAVIGATION DATA                         RINEX VERSION / TYPE
CCRINEXN V1.6.0 UX  CDDIS               31-JAN-08 02:51     PGM / RUN BY / DATE 
IGS BROADCAST EPHEMERIS FILE                                COMMENT             
    0.8382E-08 -0.7451E-08 -0.5960E-07  0.5960E-07          ION ALPHA           
    0.8806E+05 -0.3277E+05 -0.1966E+06  0.1966E+06          ION BETA            
   -0.279396772385E-08-0.106581410364E-13   405504     1464 DELTA-UTC: A0,A1,T,W
    14                                                      LEAP SECONDS        
                                                            END OF HEADER       
 2 08  1 30 21 59 44.0 0.170467421412E-03 0.306954461848E-11 0.000000000000E+00
    0.300000000000E+01 0.499062500000E+02 0.504306720685E-08 0.116017662590E+01
    0.254623591900E-05 0.877231522463E-02 0.786967575550E-05 0.515368388748E+04
    0.338384000000E+06 0.182539224625E-06 0.195977352693E+01-0.353902578354E-07
    0.943965362278E+00 0.217156250000E+03 0.244997346097E+01-0.816569727693E-08
   -0.152506352502E-09 0.100000000000E+01 0.146400000000E+04 0.000000000000E+00
    0.200000000000E+01 0.000000000000E+00-0.172294676304E-07 0.300000000000E+01
    0.334218000000E+06 0.400000000000E+01 0.000000000000E+00 0.000000000000E+00
 6 08  1 30 21 59 44.0 0.130579341203E-03 0.197815097636E-10 0.000000000000E+00
    0.370000000000E+02 0.246875000000E+01 0.517735851491E-08-0.166385177193E+01
    0.277534127235E-06 0.523520039860E-02 0.781752169132E-05 0.515506798553E+04
    0.338384000000E+06 0.800937414169E-07 0.880378608309E+00 0.135973095894E-06
    0.933408900067E+00 0.210468750000E+03-0.175151560470E+01-0.818891252965E-08
   -0.371444043564E-10 0.100000000000E+01 0.146400000000E+04 0.000000000000E+00
    0.570000000000E+01 0.630000000000E+02-0.465661287308E-08 0.370000000000E+02
    0.331218000000E+06 0.400000000000E+01 0.000000000000E+00 0.000000000000E+00
13 08  1 30 21 59 44.0 0.237344764173E-03 0.216004991671E-11 0.000000000000E+00
    0.600000000000E+01-0.436875000000E+02 0.361586490100E-08 0.157419702470E+01
   -0.246800482273E-05 0.339409383014E-02 0.528804957867E-05 0.515369211578E+04
    0.338384000000E+06-0.130385160446E-07-0.217827487323E+01-0.577419996262E-07
    0.995292552604E+00 0.295187500000E+03 0.138840423133E+01-0.777925260853E-08
   -0.166792661870E-09 0.100000000000E+01 0.146400000000E+04 0.000000000000E+00
    0.200000000000E+01 0.000000000000E+00-0.111758708954E-07 0.600000000000E+01
    0.337200000000E+06 0.000000000000E+00 0.000000000000E+00 0.000000000000E+00
16 08  1 30 21 59 44.0 0.132554676384E-03 0.454747350886E-12 0.000000000000E+00
    0.100000000000E+01-0.267812500000E+02 0.450197346069E-08 0.309118784774E+01
   -0.131316483021E-05 0.431521283463E-02 0.698864459991E-05 0.515381173325E+04
    0.338384000000E+06 0.931322574616E-08-0.109661963061E+00 0.465661287308E-07
    0.965248393350E+00 0.245750000000E+03-0.564940920491E+00-0.787711407213E-08
    0.222152116147E-09 0.100000000000E+01 0.146400000000E+04 0.000000000000E+00
    0.200000000000E+01 0.000000000000E+00-0.977888703346E-08 0.100000000000E+01
    0.331218000000E+06 0.400000000000E+01 0.000000000000E+00 0.000000000000E+00
18 08  1 30 21 59 44.0-0.208222307265E-03 0.295585778076E-11 0.000000000000E+00
    0.600000000000E+01 0.395312500000E+02 0.479948563213E-08-0.301158268647E+01
    0.203028321266E-05 0.888920971192E-02 0.418350100517E-05 0.515366198349E+04
    0.338384000000E+06-0.204890966415E-07 0.305272367623E+01-0.163912773132E-06
    0.949794776296E+00 0.291125000000E+03-0.251702464194E+01-0.816819738106E-08
   -0.115361948145E-09 0.100000000000E+01 0.146400000000E+04 0.000000000000E+00
    0.200000000000E+01 0.000000000000E+00-0.107102096081E-07 0.600000000000E+01
    0.331218000000E+06 0.400000000000E+01 0.000000000000E+00 0.000000000000E+00
19 08  1 30 21 59 44.0 0.188671983778E-04 0.147792889038E-11 0.000000000000E+00
    0.500000000000E+01 0.659375000000E+01 0.467662337156E-08 0.150474324362E+01
    0.312924385071E-06 0.426730746403E-02 0.831857323647E-05 0.515364340782E+04
    0.338384000000E+06 0.949949026108E-07 0.987947314074E+00-0.745058059692E-08
    0.957321704863E+00 0.216250000000E+03-0.642599745327E+00-0.791854412486E-08
   -0.172507185617E-09 0.100000000000E+01 0.146400000000E+04 0.000000000000E+00
    0.200000000000E+01 0.000000000000E+00-0.149011611938E-07 0.500000000000E+01
    0.332340000000E+06 0.000000000000E+00 0.000000000000E+00 0.000000000000E+00
24 08  1 30 21 59 44.0 0.666677951813E-04 0.306954461848E-11 0.000000000000E+00
    0.240000000000E+02 0.633125000000E+02 0.464697927962E-08 0.306235161409E+01
    0.334903597832E-05 0.803345104214E-02 0.788643956184E-05 0.515366648293E+04
    0.338384000000E+06-0.353902578354E-07 0.201908412892E+01 0.158324837685E-06
    0.953517601447E+00 0.223375000000E+03-0.725967167629E+00-0.791032949698E-08
   -0.975040614355E-10 0.100000000000E+01 0.146400000000E+04 0.000000000000E+00
    0.200000000000E+01 0.000000000000E+00-0.139698386192E-08 0.240000000000E+02
    0.335178000000E+06 0.400000000000E+01 0.000000000000E+00 0.000000000000E+00
25 08  1 30 21 59 44.0 0.505900010467E-03 0.432009983342E-11 0.000000000000E+00
    0.300000000000E+01-0.610000000000E+02 0.413517224652E-08-0.286196422624E+01
   -0.313855707645E-05 0.119410216576E-01 0.742822885513E-05 0.515336803818E+04
    0.338384000000E+06 0.102445483208E-06-0.126900799820E+01 0.894069671631E-07
    0.962889985078E+00 0.235406250000E+03-0.127177193614E+01-0.767924844295E-08
    0.139648674071E-09 0.100000000000E+01 0.146400000000E+04 0.000000000000E+00
    0.200000000000E+01 0.000000000000E+00-0.745058059692E-08 0.300000000000E+01
    0.331200000000E+06 0.000000000000E+00 0.000000000000E+00 0.000000000000E+00
26 08  1 30 21 59 44.0 0.170137267560E-03 0.103455022327E-10 0.000000000000E+00
    0.180000000000E+02-0.270625000000E+02 0.382623080644E-08 0.121549162851E+00
   -0.123865902424E-05 0.186297799228E-01 0.536814332008E-05 0.515358452034E+04
    0.338384000000E+06-0.782310962677E-07-0.217923751136E+01 0.268220901489E-06
    0.993271867749E+00 0.291625000000E+03 0.899960093030E+00-0.810890919719E-08
   -0.161078138122E-09 0.100000000000E+01 0.146400000000E+04 0.000000000000E+00
    0.200000000000E+01 0.000000000000E+00-0.651925802231E-08 0.180000000000E+02
    0.331698000000E+06 0.400000000000E+01 0.000000000000E+00 0.000000000000E+00
 2 08  1 30 22  0  0.0 0.170468352735E-03 0.306954461848E-11 0.000000000000E+00
    0.870000000000E+02 0.499062500000E+02 0.504306720685E-08 0.116251017627E+01
    0.254623591900E-05 0.877231569029E-02 0.786967575550E-05 0.515368388367E+04
    0.338400000000E+06 0.182539224625E-06 0.195977337771E+01-0.353902578354E-07
    0.943965354963E+00 0.217156250000E+03 0.244997367309E+01-0.816569727693E-08
   -0.152506352502E-09 0.100000000000E+01 0.146400000000E+04 0.000000000000E+00
    0.280000000000E+01 0.000000000000E+00-0.172294676304E-07 0.870000000000E+02
    0.331218000000E+06 0.400000000000E+01 0.000000000000E+00 0.000000000000E+00
 3 08  1 30 22  0  0.0 0.180358532816E-03 0.534328137292E-11 0.000000000000E+00
    0.380000000000E+02-0.687500000000E+00 0.549987211329E-08 0.602354731452E+00
   -0.745058059692E-07 0.103469967144E-01 0.789761543274E-05 0.515366246796E+04
    0.338400000000E+06-0.596046447754E-07 0.816844579370E+00 0.109896063805E-06
    0.925886038413E+00 0.209718750000E+03 0.805882246630E+00-0.851249737366E-08
   -0.169649919113E-09 0.100000000000E+01 0.146400000000E+04 0.000000000000E+00
    0.200000000000E+01 0.000000000000E+00-0.419095158577E-08 0.380000000000E+02
    0.331218000000E+06 0.400000000000E+01 0.000000000000E+00 0.000000000000E+00
 4 08  1 30 22  0  0.0-0.738538801670E-06-0.625277607469E-11 0.000000000000E+00
    0.690000000000E+02 0.600312500000E+02 0.498949354672E-08-0.250227787179E+01
    0.293739140034E-05 0.813673110679E-02 0.826083123684E-05 0.515370626450E+04
    0.338400000000E+06-0.428408384323E-07 0.197877877114E+01-0.197440385819E-06
    0.943312979812E+00 0.212125000000E+03 0.355740428440E+00-0.812712424163E-08
   -0.778603860548E-10 0.100000000000E+01 0.146400000000E+04 0.000000000000E+00
    0.200000000000E+01 0.000000000000E+00-0.605359673500E-08 0.690000000000E+02
    0.331200000000E+06 0.000000000000E+00 0.000000000000E+00 0.000000000000E+00
 5 08  1 30 22  0  0.0 0.669280532748E-03 0.158024704433E-10 0.000000000000E+00
    0.310000000000E+02-0.252500000000E+02 0.491270463387E-08-0.302043476427E+01
   -0.128895044327E-05 0.851030473132E-02 0.693649053574E-05 0.515365424347E+04
    0.338400000000E+06 0.800937414169E-07-0.216429235489E+00-0.204890966415E-07
    0.942000486284E+00 0.234875000000E+03 0.121960969755E+01-0.803247744207E-08
    0.263939565571E-09 0.100000000000E+01 0.146400000000E+04 0.000000000000E+00
    0.200000000000E+01 0.000000000000E+00-0.419095158577E-08 0.310000000000E+02
    0.331218000000E+06 0.400000000000E+01 0.000000000000E+00 0.000000000000E+00
 8 08  1 30 22  0  0.0-0.139075331390E-03-0.147792889038E-11 0.000000000000E+00
    0.950000000000E+02-0.553750000000E+02 0.386694678814E-08-0.150116780016E+01
   -0.306405127049E-05 0.100893770577E-01 0.764988362789E-05 0.515364768219E+04
    0.338400000000E+06-0.838190317154E-07-0.112318887520E+01-0.838190317154E-07
    0.981646521518E+00 0.244687500000E+03 0.286429412370E+01-0.771639284731E-08
    0.310012913282E-09 0.100000000000E+01 0.146400000000E+04 0.000000000000E+00
    0.280000000000E+01 0.000000000000E+00-0.419095158577E-08 0.950000000000E+02
    0.331200000000E+06 0.000000000000E+00 0.000000000000E+00 0.000000000000E+00
